HORYU-4                 
1 41340U 16012D   20042.45629827  .00000475  00000-0  29247-4 0  9997
2 41340  31.0058  60.4983 0013910 328.4080  31.5720 15.01414351218778
E-ST@R-II               
1 41459U 16025D   20043.24251416  .00000456  00000-0  27765-4 0  9997
2 41459  98.0958 146.7748 0164582 276.3842  81.8741 15.06025380208446
AAUSAT 4                
1 41460U 16025E   20043.16816568  .00001834  00000-0  94550-4 0  9992
2 41460  98.0908 148.6004 0154330 266.8459  91.5126 15.08161957208603
DIWATA-1                
1 41463U 98067HT  20043.12205303  .00087383  14586-4  16771-3 0  9995
2 41463  51.6231  75.8233 0003451  34.8738  64.6893 16.00471868217672
BEESAT-4                
1 41619U 16040W   20042.69107130  .00001246  00000-0  54809-4 0  9990
2 41619  97.3377 105.1329 0009529 265.2763  94.7386 15.23676474190097
CANX-7                  
1 41788U 16059F   20043.20517032  .00007751  00000-0  11098-2 0  9999
2 41788  98.2531 128.0559 0022330 337.3477  22.6756 14.76705306181177
RAVAN                   
1 41849U 16067B   20042.53746863 -.00000333  00000-0 -22714-4 0  9997
2 41849  97.9253 150.3326 0007734 314.6749  45.3842 14.98447638177610
CELTEE 1                
1 41850U 16067C   20042.55181278  .00000153  00000-0  18494-4 0  9992
2 41850  97.9191 148.4360 0007790 315.8665  44.1934 14.97115393177518
OPTICUBE 04             
1 41851U 16067D   20042.86218575 -.00000406  00000-0 -30117-4 0  9997
2 41851  97.9194 148.4356 0007988 319.8610  40.2020 14.96884131177548
AEROCUBE 8D             
1 41852U 16067E   20042.54165361 -.00000102  00000-0 -35632-5 0  9998
2 41852  97.9195 147.9402 0008789 318.4840  41.5713 14.96836076177476
AEROCUBE 8C             
1 41853U 16067F   20042.57025567  .00000791  00000-0  74356-4 0  9992
2 41853  97.9197 147.8850 0008707 321.3514  38.7083 14.96803299177475
PROMETHEUS 2-1          
1 41854U 16067G   20042.56534173  .00000836  00000-0  77722-4 0  9990
2 41854  97.9204 148.1324 0008983 318.9712  41.0832 14.97082218177484
PROMETHEUS 2-3          
1 41855U 16067H   20042.83396476  .00000869  00000-0  80608-4 0  9996
2 41855  97.9207 148.4307 0009100 318.5962  41.4569 14.97092292177526
INS-1B                  
1 41954U 17008G   20042.67693378  .00001169  00000-0  50427-4 0  9995
2 41954  97.3711 109.2656 0009930  37.0979 323.0943 15.24466351166057
BGUSAT                  
1 41999U 17008BD  20042.69239913  .00002029  00000-0  79336-4 0  9993
2 41999  97.3805 112.7497 0009015  48.1657 312.0351 15.26976931165605
DIDO-2                  
1 42000U 17008BE  20042.61887854  .00000775  00000-0  34604-4 0  9997
2 42000  97.3721 109.7489 0009767  54.2278 305.9867 15.24267624165449
PEASSS                  
1 42015U 17008BV  20042.68780458  .00001048  00000-0  44414-4 0  9996
2 42015  97.3738 111.1727 0007675  59.7556 300.4440 15.25332288166022
AL-FARABI 1             
1 42016U 17008BW  20043.16894781  .00001273  00000-0  52130-4 0  9990
2 42016  97.3762 112.4942 0007482  57.6129 302.5832 15.26095070166262
NAYIF-1 (EO-88)         
1 42017U 17008BX  20042.69194850  .00001381  00000-0  56282-4 0  9990
2 42017  97.3758 112.0354 0007539  58.9258 301.2719 15.26131955166219
NSIGHT                  
1 42726U 98067MF  20043.01920344  .00070930  00000-0  25399-3 0  9993
2 42726  51.6296 158.2837 0004204 358.2615   1.8375 15.88132854155444
UCLSAT                  
1 42765U 17036A   20042.64685610  .00001146  00000-0  51235-4 0  9997
2 42765  97.3199 100.1887 0012976 110.4338 249.8294 15.23232114147277
LITUANICASAT-2          
1 42768U 17036D   20042.66124998  .00001869  00000-0  80759-4 0  9994
2 42768  97.3246 100.0015 0016502 102.3365 257.9721 15.23585418146535
AALTO-1                 
1 42775U 17036L   20042.67503586  .00000685  00000-0  33249-4 0  9994
2 42775  97.3177  98.3790 0015583 103.8089 256.4882 15.21653318146391
URSA MAIOR              
1 42776U 17036M   20043.13901222  .00000707  00000-0  34054-4 0  9996
2 42776  97.3187  99.0628 0015398 102.2295 258.0666 15.21816274146476
COMPASS 2               
1 42777U 17036N   20042.67521003  .00001505  00000-0  65779-4 0  9995
2 42777  97.3239 100.4696 0014035 102.9897 257.2908 15.23532964146494
DIAMOND RED             
1 42783U 17036U   20042.38884794  .00000910  00000-0  42026-4 0  9998
2 42783  97.3199  99.3306 0013668 112.9282 247.3399 15.22595002146417
PEGASUS                 
1 42784U 17036V   20043.10692192  .00000953  00000-0  43443-4 0  9990
2 42784  97.3202 100.3755 0013571 109.9281 250.3420 15.22942883146548
DIAMOND GREEN           
1 42785U 17036W   20042.91340703  .00000850  00000-0  39460-4 0  9997
2 42785  97.3200  99.8730 0013593 111.8550 248.4134 15.22597300146480
DIAMOND BLUE            
1 42786U 17036X   20042.64973467  .00000897  00000-0  41487-4 0  9990
2 42786  97.3201  99.6124 0013410 112.8012 247.4643 15.22595424146444
NUDTSAT                 
1 42787U 17036Y   20042.93869498  .00001364  00000-0  58907-4 0  9996
2 42787  97.3249 101.3317 0012567 102.8044 257.4621 15.24118686146426
SUCHAI                  
1 42788U 17036Z   20042.64915512  .00001252  00000-0  55381-4 0  9993
2 42788  97.3210 100.4063 0013109 110.0577 250.2072 15.23439904146573
SKCUBE                  
1 42789U 17036AA  20042.68301331  .00001134  00000-0  50637-4 0  9994
2 42789  97.3204 100.3281 0012988 110.1636 250.1000 15.23304611146496
VZLUSAT-1               
1 42790U 17036AB  20042.59851257  .00001565  00000-0  67155-4 0  9994
2 42790  97.3226 100.9950 0012522 108.9254 251.3342 15.24109615146520
ROBUSTA-1B              
1 42792U 17036AD  20042.65225005  .00001210  00000-0  53530-4 0  9998
2 42792  97.3207 100.5110 0012567 110.6104 249.6483 15.23487006146515
CICERO 6                
1 42793U 17036AE  20042.65442767  .00000779  00000-0  36099-4 0  9995
2 42793  97.3185 100.0727 0011837 112.3361 247.9132 15.22927657146560
D-SAT                   
1 42794U 17036AF  20042.62425633  .00000167  00000-0  19605-4 0  9991
2 42794  97.5105  81.4474 0127767  68.5912 292.8882 14.91216621143790
CORVUS BC2              
1 42846U 17042X   20042.62645786  .00000293  00000-0  34089-4 0  9992
2 42846  97.5410 291.7625 0009299 350.9249   9.1801 14.92058515140492
CORVUS BC1              
1 42847U 17042Y   20042.63073458  .00000326  00000-0  37316-4 0  9998
2 42847  97.5412 291.9134 0008936 350.4546   9.6502 14.92159541140498
MIRATA                  
1 43015U 17073C   20042.66597311  .00000834  00000-0  69163-4 0  9991
2 43015  97.7229 319.6933 0255419 102.0128 260.9833 14.79396554120473
MAKERSAT 0              
1 43016U 17073D   20042.32223560  .00000559  00000-0  48056-4 0  9999
2 43016  97.7266 319.5607 0257979 103.9011 259.1039 14.79034414120401
ASTERIA                 
1 43020U 98067NH  20042.83474099  .00064976  00000-0  24566-3 0  9999
2 43020  51.6408 171.7410 0002317 332.8266  27.2617 15.87073075127434
DELLINGR (RBLE)         
1 43021U 98067NJ  20042.82175864  .00010358  00000-0  98765-4 0  9995
2 43021  51.6358 205.4181 0001475 289.2893  70.7944 15.67437556126985
AEROCUBE 7B (OCSD B)    
1 43042U 17071F   20042.95589031  .00002898  00000-0  74749-4 0  9999
2 43042  51.6387 326.8608 0003866 309.2106  50.8536 15.42676647122844
AEROCUBE 7C (OCSD C)    
1 43043U 17071G   20043.08683149  .00003020  00000-0  77541-4 0  9991
2 43043  51.6386 326.2500 0004126 314.2161  45.8485 15.42655669122833
CHEFSAT                 
1 43044U 17071H   20042.97788506  .00006080  00000-0  12877-3 0  9991
2 43044  51.6390 315.9875 0003698 316.6116  43.4580 15.46536335122964
ASGARDIA 1              
1 43049U 17071N   20043.02093043  .00002750  00000-0  71219-4 0  9994
2 43049  51.6398 325.8672 0001973 341.1484  18.9428 15.42745908122824
ISARA                   
1 43050U 17071P   20043.08244876  .00005602  00000-0  12239-3 0  9999
2 43050  51.6374 317.3478 0001730 343.2765  16.8165 15.45779628122943
PROPCUBE 2 (FAUNA)      
1 43052U 17071R   20043.17093858  .00003562  00000-0  88375-4 0  9991
2 43052  51.6391 323.8883 0001874 339.0949  20.9960 15.43129227122864
CORVUS BC3              
1 43118U 18004H   20042.64468493  .00000725  00000-0  33646-4 0  9992
2 43118  97.4591 113.8751 0011600 132.0611 228.1615 15.23170442115698
MICROMAS-2A             
1 43131U 18004W   20042.42461079  .00001806  00000-0  75567-4 0  9995
2 43131  97.4629 114.9678 0010493 132.2876 227.9253 15.24838539115738
SPACEBEE-4              
1 43139U 18004AE  20042.68921763  .00002432  00000-0  97499-4 0  9996
2 43139  97.4653 116.1286 0009889 132.7650 227.4422 15.25948495115821
SPACEBEE-3              
1 43140U 18004AF  20043.16062261  .00002739  00000-0  10704-3 0  9994
2 43140  97.4665 117.1030 0009715 130.7021 229.5063 15.26695975115920
SPACEBEE-2              
1 43141U 18004AG  20043.16339869  .00002916  00000-0  11294-3 0  9998
2 43141  97.4676 117.2896 0009693 130.2474 229.9614 15.26951216115936
SPACEBEE-1              
1 43142U 18004AH  20042.63372420  .00003474  00000-0  13282-3 0  9999
2 43142  97.4680 116.9518 0009661 131.8985 228.3079 15.27240218115851
CICERO 7                
1 43143U 18004AJ  20042.69338754  .00001639  00000-0  68709-4 0  9994
2 43143  97.4611 115.4389 0008532 138.1801 222.0090 15.24922363115791
GOMX-4B                 
1 43196U 18015E   20042.90893523  .00000414  00000-0  19898-4 0  9993
2 43196  97.4187 172.5847 0018567 185.2763 174.8276 15.24140960112623
GOMX-4A                 
1 43197U 18015F   20043.15000686  .00000880  00000-0  38785-4 0  9995
2 43197  97.4175 172.8780 0018966 184.4150 260.7344 15.24319044112671
1KUNS-PF                
1 43466U 98067NP  20042.87403897  .00044033  00000-0  23883-3 0  9998
2 43466  51.6312 195.8315 0001317 300.5566  59.5305 15.79573100100378
UBAKUSAT                
1 43467U 98067NQ  20042.94010441  .00018008  00000-0  15497-3 0  9991
2 43467  51.6336 209.8882 0001557 251.2322 108.8506 15.69388923100207
